NORAD_CAT_ID,OBJECT_NAME,OBJECT_TYPE,EPOCH,MEAN_MOTION,ECCENTRICITY,INCLINATION,RA_OF_ASC_NODE,ARG_OF_PERICENTER,MEAN_ANOMALY,BSTAR,MEAN_MOTION_DOT,MEAN_MOTION_DDOT,TLE_LINE0,TLE_LINE1,TLE_LINE2,SEMIMAJOR_AXIS,PERIOD,APOGEE,PERIGEE,DECAYED
53282.0,STARLINK-4164,PAYLOAD,2024-03-06 11:16:25,15.08849436,6.58e-05,53.2161,235.6731,105.951,254.1555,-3.0408e-05,-7.72e-06,0.0,0 STARLINK-4164,1 53282U 22086AS  24066.46974016 -.00000772  00000-0 -30408-4 0  9990,2 53282  53.2161 235.6731 0000658 105.9510 254.1555 15.08849436 90337,6917.852,95.437,540.172,539.261,0.0
53282.0,STARLINK-4164,PAYLOAD,2024-03-06 17:37:57,15.08865831,0.0001345,53.2162,234.4847,91.6996,268.415,6.4198e-05,7.35e-06,0.0,0 STARLINK-4164,1 53282U 22086AS  24066.73469207  .00000735  00000-0  64198-4 0  9991,2 53282  53.2162 234.4847 0001345  91.6996 268.4150 15.08865831 90376,6917.801,95.436,540.597,538.736,0.0
53282.0,STARLINK-4164,PAYLOAD,2024-03-07 14:18:00,15.08825804,0.0002004,53.216,230.614,126.4796,233.6381,0.00027992,4.168e-05,0.0,0 STARLINK-4164,1 53282U 22086AS  24067.59583535  .00004168  00000-0  27992-3 0  9991,2 53282  53.2160 230.6140 0002004 126.4796 233.6381 15.08825804 90675,6917.924,95.438,541.175,538.402,0.0
53282.0,STARLINK-4164,PAYLOAD,2024-03-08 10:58:00,15.08841445,0.0001469,53.2167,226.7546,91.5662,268.5499,9.7021e-05,1.257e-05,0.0,0 STARLINK-4164,1 53282U 22086AS  24068.45695381  .00001257  00000-0  97021-4 0  9997,2 53282  53.2167 226.7546 0001469  91.5662 268.5499 15.08841445 90638,6917.876,95.437,540.757,538.725,0.0
53282.0,STARLINK-4164,PAYLOAD,2024-03-08 17:19:33,15.08845228,0.0001561,53.2164,225.5643,90.0928,270.0243,0.00024942,3.684e-05,0.0,0 STARLINK-4164,1 53282U 22086AS  24068.72191320  .00003684  00000-0  24942-3 0  9998,2 53282  53.2164 225.5643 0001561  90.0928 270.0243 15.08845228 90843,6917.864,95.437,540.809,538.65,0.0
53282.0,STARLINK-4164,PAYLOAD,2024-03-09 10:48:48,15.08841408,0.0001872,53.2166,222.2935,89.8007,270.32,0.00038377,5.825e-05,0.0,0 STARLINK-4164,1 53282U 22086AS  24069.45055937  .00005825  00000-0  38377-3 0  9998,2 53282  53.2166 222.2935 0001872  89.8007 270.3200 15.08841408 90787,6917.876,95.437,541.036,538.446,0.0
53282.0,STARLINK-4164,PAYLOAD,2024-03-09 17:10:20,15.0884454,0.0001917,53.2163,221.1036,89.5149,270.6063,0.00029339,4.385e-05,0.0,0 STARLINK-4164,1 53282U 22086AS  24069.71551775  .00004385  00000-0  29339-3 0  9996,2 53282  53.2163 221.1036 0001917  89.5149 270.6063 15.08844540 90991,6917.867,95.437,541.058,538.405,0.0
53282.0,STARLINK-4164,PAYLOAD,2024-03-10 02:42:39,15.08839318,0.0001835,53.2159,219.3202,90.6829,269.4373,2.2433e-05,6.9e-07,0.0,0 STARLINK-4164,1 53282U 22086AS  24070.11295848  .00000069  00000-0  22433-4 0  9992,2 53282  53.2159 219.3202 0001835  90.6829 269.4373 15.08839318 90882,6917.882,95.438,541.017,538.478,0.0
53282.0,STARLINK-4164,PAYLOAD,2024-03-10 18:36:30,15.08842473,0.0001378,53.2156,216.3473,87.8162,272.2988,-5.7375e-05,-1.201e-05,0.0,0 STARLINK-4164,1 53282U 22086AS  24070.77535700 -.00001201  00000-0 -57375-4 0  9992,2 53282  53.2156 216.3473 0001378  87.8162 272.2988 15.08842473 91157,6917.873,95.437,540.691,538.785,0.0
53282.0,STARLINK-4164,PAYLOAD,2024-03-11 02:33:26,15.08837052,0.0001407,53.2141,214.8593,87.1829,272.9324,9.76e-05,1.266e-05,0.0,0 STARLINK-4164,1 53282U 22086AS  24071.10656076  .00001266  00000-0  97600-4 0  9994,2 53282  53.2141 214.8593 0001407  87.1829 272.9324 15.08837052 91207,6917.889,95.438,540.728,538.781,0.0
53282.0,STARLINK-4164,PAYLOAD,2024-03-11 18:27:17,15.08843975,0.0001545,53.2137,211.8839,89.9661,270.1508,0.00016749,2.379e-05,0.0,0 STARLINK-4164,1 53282U 22086AS  24071.76895812  .00002379  00000-0  16749-3 0  9999,2 53282  53.2137 211.8839 0001545  89.9661 270.1508 15.08843975 91136,6917.868,95.437,540.802,538.664,0.0
53282.0,STARLINK-4164,PAYLOAD,2024-03-12 15:07:18,15.08840735,0.0001617,53.2097,208.0168,86.4704,273.6473,2.7053e-05,1.43e-06,0.0,0 STARLINK-4164,1 53282U 22086AS  24072.63008096  .00000143  00000-0  27053-4 0  9994,2 53282  53.2097 208.0168 0001617  86.4704 273.6473 15.08840735 91268,6917.878,95.438,540.862,538.625,0.0
53282.0,STARLINK-4164,PAYLOAD,2024-03-13 14:58:06,15.0884038,0.0001679,53.2119,203.5574,89.3585,270.7599,8.5183e-05,1.068e-05,0.0,0 STARLINK-4164,1 53282U 22086AS  24073.62368430  .00001068  00000-0  85183-4 0  9990,2 53282  53.2119 203.5574 0001679  89.3585 270.7599 15.08840380 91589,6917.879,95.438,540.906,538.583,0.0
53282.0,STARLINK-4164,PAYLOAD,2024-03-13 18:08:52,15.08838865,0.0001636,53.2115,202.961,96.8109,263.3069,0.00013373,1.841e-05,0.0,0 STARLINK-4164,1 53282U 22086AS  24073.75616499  .00001841  00000-0  13373-3 0  9995,2 53282  53.2115 202.9610 0001636  96.8109 263.3069 15.08838865 91436,6917.884,95.438,540.881,538.617,0.0
53282.0,STARLINK-4164,PAYLOAD,2024-03-14 11:38:06,15.08846283,0.0001624,53.2117,199.6904,95.433,264.6848,0.00023062,3.385e-05,0.0,0 STARLINK-4164,1 53282U 22086AS  24074.48480146  .00003385  00000-0  23062-3 0  9995,2 53282  53.2117 199.6904 0001624  95.4330 264.6848 15.08846283 91717,6917.861,95.437,540.85,538.603,0.0
53282.0,STARLINK-4164,PAYLOAD,2024-03-15 11:28:53,15.08841988,0.0001586,53.2134,195.2309,104.9944,255.1224,9.0199e-05,1.148e-05,0.0,0 STARLINK-4164,1 53282U 22086AS  24075.47840161  .00001148  00000-0  90199-4 0  9993,2 53282  53.2134 195.2309 0001586 104.9944 255.1224 15.08841988 91698,6917.874,95.437,540.836,538.642,0.0
53282.0,STARLINK-4164,PAYLOAD,2024-03-16 12:55:04,15.08840244,0.0001348,53.217,190.4774,86.564,273.5506,3.4478e-05,2.61e-06,0.0,0 STARLINK-4164,1 53282U 22086AS  24076.53824469  .00000261  00000-0  34478-4 0  9997,2 53282  53.2170 190.4774 0001348  86.5640 273.5506 15.08840244 91854,6917.88,95.438,540.677,538.812,0.0
53282.0,STARLINK-4164,PAYLOAD,2024-03-16 14:30:27,15.08841442,0.000139,53.2178,190.1809,88.2091,271.9061,3.9547e-05,3.42e-06,0.0,0 STARLINK-4164,1 53282U 22086AS  24076.60448356  .00000342  00000-0  39547-4 0  9994,2 53282  53.2178 190.1809 0001390  88.2091 271.9061 15.08841442 92034,6917.876,95.437,540.703,538.779,0.0
53282.0,STARLINK-4164,PAYLOAD,2024-03-17 12:45:51,15.08837482,0.0001467,53.2178,186.0171,91.0297,269.0863,8.1815e-05,1.014e-05,0.0,0 STARLINK-4164,1 53282U 22086AS  24077.53184586  .00001014  00000-0  81815-4 0  9991,2 53282  53.2178 186.0171 0001467  91.0297 269.0863 15.08837482 92177,6917.888,95.438,540.768,538.738,0.0
53282.0,STARLINK-4164,PAYLOAD,2024-03-18 11:01:16,15.08832964,0.0001501,53.218,181.8548,88.3808,271.7356,4.0087e-05,3.5e-06,0.0,0 STARLINK-4164,1 53282U 22086AS  24078.45921343  .00000350  00000-0  40087-4 0  9991,2 53282  53.2180 181.8548 0001501  88.3808 271.7356 15.08832964 92141,6917.902,95.438,540.805,538.729,0.0
53282.0,STARLINK-4164,PAYLOAD,2024-03-18 17:22:48,15.08837552,0.0001749,53.2169,180.6549,111.6114,248.5064,4.387e-05,4.1e-06,0.0,0 STARLINK-4164,1 53282U 22086AS  24078.72416924  .00000410  00000-0  43870-4 0  9995,2 53282  53.2169 180.6549 0001749 111.6114 248.5064 15.08837552 92359,6917.888,95.438,540.963,538.543,0.0
53282.0,STARLINK-4164,PAYLOAD,2024-03-19 12:27:25,15.08849096,0.0001604,53.2167,177.0885,93.7579,266.3596,0.00013733,1.899e-05,0.0,0 STARLINK-4164,1 53282U 22086AS  24079.51904171  .00001899  00000-0  13733-3 0  9995,2 53282  53.2167 177.0885 0001604  93.7579 266.3596 15.08849096 92304,6917.853,95.437,540.827,538.608,0.0
53282.0,STARLINK-4164,PAYLOAD,2024-03-20 10:42:50,15.08832776,0.000176,53.2177,172.9297,102.5898,257.5291,-1.6501e-05,-5.51e-06,0.0,0 STARLINK-4164,1 53282U 22086AS  24080.44641959 -.00000551  00000-0 -16501-4 0  9994,2 53282  53.2177 172.9297 0001760 102.5898 257.5291 15.08832776 92448,6917.902,95.438,540.985,538.55,0.0
53282.0,STARLINK-4164,PAYLOAD,2024-03-20 13:53:36,15.08835512,0.0001716,53.2181,172.3347,109.1893,250.9285,9.6988e-06,-1.34e-06,0.0,0 STARLINK-4164,1 53282U 22086AS  24080.57889783 -.00000134  00000-0  96988-5 0  9991,2 53282  53.2181 172.3347 0001716 109.1893 250.9285 15.08835512 92634,6917.894,95.438,540.946,538.572,0.0
53282.0,STARLINK-4164,PAYLOAD,2024-03-20 23:25:55,15.08840715,0.0001419,53.2176,170.55,105.7177,254.3972,6.0955e-05,6.82e-06,0.0,0 STARLINK-4164,1 53282U 22086AS  24080.97633411  .00000682  00000-0  60955-4 0  9991,2 53282  53.2176 170.5500 0001419 105.7177 254.3972 15.08840715 92526,6917.878,95.438,540.725,538.762,0.0
53282.0,STARLINK-4164,PAYLOAD,2024-03-21 12:08:59,15.08861975,0.0001424,53.2155,168.1731,76.0942,284.0209,0.000268,3.982e-05,0.0,0 STARLINK-4164,1 53282U 22086AS  24081.50624441  .00003982  00000-0  26800-3 0  9990,2 53282  53.2155 168.1731 0001424  76.0942 284.0209 15.08861975 92601,6917.813,95.436,540.663,538.693,0.0
53282.0,STARLINK-4164,PAYLOAD,2024-03-22 05:38:14,15.08853999,0.0001673,53.216,164.9014,78.8315,281.2865,0.00032674,4.918e-05,0.0,0 STARLINK-4164,1 53282U 22086AS  24082.23488648  .00004918  00000-0  32674-3 0  9994,2 53282  53.2160 164.9014 0001673  78.8315 281.2865 15.08853999 92711,6917.838,95.437,540.86,538.545,0.0
53282.0,STARLINK-4164,PAYLOAD,2024-03-22 11:59:46,15.08858846,0.0001617,53.2167,163.7125,71.1541,288.9626,0.00035621,5.388e-05,0.0,0 STARLINK-4164,1 53282U 22086AS  24082.49984123  .00005388  00000-0  35621-3 0  9998,2 53282  53.2167 163.7125 0001617  71.1541 288.9626 15.08858846 92921,6917.823,95.436,540.806,538.569,0.0
53282.0,STARLINK-4164,PAYLOAD,2024-03-23 05:29:01,15.08835204,0.0001573,53.2156,160.4412,97.551,262.566,-0.00024332,-4.158e-05,0.0,0 STARLINK-4164,1 53282U 22086AS  24083.22848848 -.00004158  00000-0 -24332-3 0  9996,2 53282  53.2156 160.4412 0001573  97.5510 262.5660 15.08835204 92863,6917.895,95.438,540.848,538.672,0.0
53282.0,STARLINK-4164,PAYLOAD,2024-03-23 11:50:34,15.08832875,0.0001576,53.2168,159.2486,99.966,260.151,-0.00029403,-4.964e-05,0.0,0 STARLINK-4164,1 53282U 22086AS  24083.49345274 -.00004964  00000-0 -29403-3 0  9999,2 53282  53.2168 159.2486 0001576  99.9660 260.1510 15.08832875 93071,6917.902,95.438,540.857,538.677,0.0
